OBJECT_NAME,OBJECT_ID,EPOCH,MEAN_MOTION,ECCENTRICITY,INCLINATION,RA_OF_ASC_NODE,ARG_OF_PERICENTER,MEAN_ANOMALY,EPHEMERIS_TYPE,CLASSIFICATION_TYPE,NORAD_CAT_ID,ELEMENT_SET_NO,REV_AT_EPOCH,BSTAR,MEAN_MOTION_DOT,MEAN_MOTION_DDOT,sigma_x,sigma_y,sigma_z
STARLINK-11535 [DTC],2025-008J,2025-07-30T18:04:23.175264,15.70941877,0.0002293,43.0002,23.5417,256.5041,103.5571,0,U,62595,999,3223,0.0016329,0.00215524,0.0,0.5,0.5,0.5
STARLINK-11532 [DTC],2025-008K,2025-08-01T06:00:02.000160,16.14077826,0.0007014,42.9866,7.5456,296.1499,154.6495,0,U,62596,999,3247,0.0012315,0.01558003,0.0018901,0.5,0.5,0.5
STARLINK-11521 [DTC],2025-008L,2025-07-30T18:27:18.963936,15.70938672,0.0001791,42.9995,23.668,269.0655,91.0008,0,U,62597,999,3238,0.00095898,0.00124988,0.0,0.5,0.5,0.5
STARLINK-11258 [DTC],2025-008M,2025-07-31T18:59:55.641408,15.71018669,0.0003638,43.0021,17.5797,300.5196,59.5312,0,U,62598,999,3254,0.0014796,0.00195431,0.0,0.5,0.5,0.5
STARLINK-11529 [DTC],2025-008N,2025-07-31T20:39:07.860096,15.70956648,0.0002319,42.9994,17.2378,265.016,95.0443,0,U,62599,999,3256,0.0016195,0.00213841,0.0,0.5,0.5,0.5
STARLINK-32747,2025-008P,2025-08-01T00:43:43.246560,15.27580239,6.1e-05,42.9953,84.4224,19.2904,340.797,0,U,62600,999,3181,0.0011704,0.00032085,0.0,0.5,0.5,0.5
STARLINK-32767,2025-008Q,2025-07-31T23:51:54.612576,15.27606836,0.0001589,43.0006,84.1386,283.5414,76.5261,0,U,62601,999,3187,0.00099169,0.0002715,0.0,0.5,0.5,0.5
STARLINK-32769,2025-008R,2025-08-01T01:31:37.382304,15.27612329,0.0001273,42.9998,83.7986,330.3492,29.7287,0,U,62602,999,3187,0.0013793,0.00037926,0.0,0.5,0.5,0.5
STARLINK-32778,2025-008S,2025-08-01T01:00:22.086720,15.27606614,0.0002253,43.0037,84.5036,257.3442,102.7158,0,U,62603,999,3180,0.0010034,0.00027475,0.0,0.5,0.5,0.5
STARLINK-32710,2025-008T,2025-07-31T23:31:33.625056,15.27606365,0.0002077,43.0002,84.0293,270.4877,89.5736,0,U,62604,999,3178,0.0013843,0.00038059,0.0,0.5,0.5,0.5
STARLINK-32742,2025-008U,2025-08-01T01:11:15.648288,15.2760748,9.65e-05,43.0001,83.6884,265.9999,94.0742,0,U,62605,999,3186,0.00089798,0.00024551,0.0,0.5,0.5,0.5
STARLINK-32783,2025-008V,2025-08-01T01:37:09.523776,15.27613901,0.0002364,42.9987,83.8339,265.6871,94.371,0,U,62606,999,3182,0.0017658,0.00048703,0.0,0.5,0.5,0.5
STARLINK-32784,2025-008W,2025-07-31T22:12:12.204000,15.2759908,0.000152,43.0007,84.4731,257.4964,102.5718,0,U,62607,999,3186,0.00077711,0.00021196,0.0,0.5,0.5,0.5
STARLINK-32806,2025-014A,2025-07-31T19:16:57.451008,15.27619544,0.0001484,43.0016,322.0205,274.5732,85.495,0,U,62735,999,2947,0.0014631,0.00040268,0.0,0.5,0.5,0.5
STARLINK-32329,2025-014B,2025-07-31T15:40:53.664960,15.27626764,0.0001736,42.9983,322.6026,268.4965,91.5688,0,U,62736,999,2945,0.0013213,0.00036329,0.0,0.5,0.5,0.5
STARLINK-32774,2025-014C,2025-07-31T18:31:51.207744,15.27601924,0.0001405,43.0004,325.2438,256.3176,103.7519,0,U,62737,999,2943,0.00080614,0.00022002,0.0,0.5,0.5,0.5
STARLINK-32802,2025-014D,2025-07-31T15:11:19.107456,15.27560202,2.66e-05,43.0032,322.4534,11.2647,348.8211,0,U,62738,999,2945,0.00081546,0.00022232,0.0,0.5,0.5,0.5
STARLINK-32796,2025-014E,2025-07-31T15:07:37.354944,15.27588842,0.000255,43.0064,322.4351,265.0076,95.0485,0,U,62739,999,2945,0.0010994,0.00030124,0.0,0.5,0.5,0.5
STARLINK-32805,2025-014F,2025-07-31T18:05:00.552768,15.27615548,9.94e-05,43.0006,322.5075,285.6981,74.3761,0,U,62740,999,2946,0.0010313,0.00028256,0.0,0.5,0.5,0.5
STARLINK-32770,2025-014G,2025-07-31T09:09:28.389312,15.27586017,0.0001075,43.0003,324.0069,243.344,116.7301,0,U,62741,999,2941,0.00078469,0.00021397,0.0,0.5,0.5,0.5
STARLINK-32775,2025-014H,2025-07-31T15:42:45.277344,15.27596042,0.0001572,43.0006,322.6152,280.5453,79.5222,0,U,62742,999,2945,0.0012881,0.00035371,0.0,0.5,0.5,0.5
STARLINK-32800,2025-014J,2025-07-31T15:00:51.446016,15.27602044,3.65e-05,42.9983,330.1821,99.9583,260.1309,0,U,62743,999,2936,0.0012993,0.00035689,0.0,0.5,0.5,0.5
STARLINK-32758,2025-014K,2025-07-31T22:00:01.999584,15.27571442,0.0001494,43.0017,324.5953,264.5564,100.6795,0,U,62744,999,2945,0.00013507,3.455e-05,0.0,0.5,0.5,0.5
STARLINK-32746,2025-014L,2025-07-31T18:10:20.764992,15.27606326,0.0001423,43.0022,321.6645,274.4279,85.641,0,U,62745,999,2947,0.0009497,0.00025985,0.0,0.5,0.5,0.5
STARLINK-32780,2025-014M,2025-07-31T08:38:13.480800,15.27586422,0.0001476,43.0015,324.7066,254.0281,106.0408,0,U,62746,999,2940,0.00078471,0.00021398,0.0,0.5,0.5,0.5
STARLINK-32765,2025-014N,2025-07-31T14:23:23.597952,15.27613485,2.3e-05,43.0014,323.0656,204.9376,155.1465,0,U,62747,999,2944,0.001115,0.00030579,0.0,0.5,0.5,0.5
STARLINK-32762,2025-014P,2025-07-31T18:35:33.247968,15.27609283,0.0001536,43.0023,325.2596,265.4584,94.6092,0,U,62748,999,2943,0.0010215,0.00027979,0.0,0.5,0.5,0.5
STARLINK-32761,2025-014Q,2025-07-31T09:14:19.796640,15.27584244,0.0001085,43.0019,327.4918,236.8693,123.2055,0,U,62749,999,2937,0.00086754,0.0002369,0.0,0.5,0.5,0.5
STARLINK-32763,2025-014R,2025-07-31T09:05:46.621248,15.27590078,0.0001585,43.0017,323.9835,270.6365,89.4305,0,U,62750,999,2941,0.0008702,0.00023769,0.0,0.5,0.5,0.5
STARLINK-32759,2025-014S,2025-07-31T14:43:01.644672,15.27636996,5.67e-05,43.0002,326.6286,221.6268,138.4541,0,U,62751,999,2940,0.00076265,0.0002082,0.0,0.5,0.5,0.5
STARLINK-32756,2025-014T,2025-07-31T18:06:51.892128,15.27597635,9.28e-05,43.0009,322.5083,270.6388,89.4357,0,U,62752,999,2946,0.00090259,0.00024672,0.0,0.5,0.5,0.5
STARLINK-32751,2025-014U,2025-07-31T14:49:17.655744,15.27601286,5.53e-05,43.0034,323.2008,228.4415,131.6389,0,U,62753,999,2944,0.00080031,0.0002184,0.0,0.5,0.5,0.5
STARLINK-32740,2025-014V,2025-07-31T18:48:38.693088,15.28450906,0.0001746,43.0013,321.8684,258.9187,101.1469,0,U,62754,999,2947,0.0015253,0.00043094,0.0,0.5,0.5,0.5
STARLINK-32745,2025-014W,2025-07-31T14:32:38.431968,15.27606209,0.0001661,43.001,323.1111,277.7954,82.2709,0,U,62755,999,2944,0.0011504,0.00031556,0.0,0.5,0.5,0.5
STARLINK-33596,2025-015A,2025-07-31T10:40:57.941184,15.30196548,0.0001173,53.1571,270.3987,78.3624,281.7508,0,U,62758,999,3053,0.0008554,0.00025058,0.0,0.5,0.5,0.5
STARLINK-33589,2025-015B,2025-07-31T10:37:55.496352,15.30195982,0.0001282,53.1576,270.3905,82.4846,277.63,0,U,62759,999,2984,0.00095228,0.00027947,0.0,0.5,0.5,0.5
STARLINK-33575,2025-015C,2025-08-01T03:28:12.231264,15.3019175,0.0001766,53.1589,266.9122,104.4322,255.6875,0,U,62760,999,3065,0.00061054,0.00017762,0.0,0.5,0.5,0.5
STARLINK-33584,2025-015D,2025-07-31T11:27:54.385920,15.30211879,0.0001052,53.1581,269.8933,108.0185,252.093,0,U,62761,999,3061,0.0011629,0.00034254,0.0,0.5,0.5,0.5
STARLINK-33577,2025-015E,2025-08-01T04:13:37.399584,15.30215611,0.0001495,53.1571,266.4275,104.2609,255.8558,0,U,62762,999,3071,0.0009882,0.00029037,0.0,0.5,0.5,0.5
STARLINK-33597,2025-015F,2025-07-31T10:45:31.302144,15.30190977,0.000125,53.1568,270.4192,89.745,270.3694,0,U,62763,999,3060,0.00070244,0.00020497,0.0,0.5,0.5,0.5
STARLINK-33579,2025-015G,2025-08-01T04:06:01.336320,15.30218169,0.0002516,53.1565,266.3966,105.2997,254.8282,0,U,62764,999,3071,0.00095444,0.00028032,0.0,0.5,0.5,0.5
STARLINK-33592,2025-015H,2025-08-01T03:32:45.394368,15.3021147,0.0001379,53.159,266.9596,73.7845,286.3307,0,U,62765,999,3058,0.00089051,0.00026117,0.0,0.5,0.5,0.5
STARLINK-33595,2025-015J,2025-08-01T02:56:17.159712,15.30205442,0.0001343,53.1572,266.8059,75.0487,285.0662,0,U,62766,999,3070,0.0005989,0.00017423,0.0,0.5,0.5,0.5
STARLINK-33572,2025-015K,2025-08-01T03:19:05.011680,15.30208787,0.0001492,53.1592,266.9017,88.6322,271.485,0,U,62767,999,3065,0.00083172,0.00024361,0.0,0.5,0.5,0.5
STARLINK-33601,2025-015L,2025-08-01T03:09:57.858624,15.30205988,0.0001678,53.1581,266.8623,64.4862,295.6312,0,U,62768,999,3070,0.000654,0.00019064,0.0,0.5,0.5,0.5
STARLINK-33569,2025-015M,2025-08-01T04:19:42.137184,15.3020978,0.0001495,53.1576,266.4577,110.8088,249.3073,0,U,62769,999,3071,0.00075554,0.00022091,0.0,0.5,0.5,0.5
STARLINK-33594,2025-015N,2025-08-01T04:09:03.972960,15.30207937,0.0001434,53.1571,266.4098,98.445,261.6713,0,U,62770,999,3071,0.00083391,0.00024426,0.0,0.5,0.5,0.5
STARLINK-33598,2025-015P,2025-07-31T11:08:09.296736,15.30203437,0.0001163,53.157,269.805,86.5806,273.5328,0,U,62771,999,3061,0.00053259,0.00015449,0.0,0.5,0.5,0.5
STARLINK-33600,2025-015Q,2025-08-01T03:46:25.983552,15.30212788,0.0001414,53.1586,267.018,98.316,261.8001,0,U,62772,999,3071,0.0012217,0.00036014,0.0,0.5,0.5,0.5
STARLINK-33567,2025-015R,2025-07-31T11:24:52.235712,15.30205279,0.0001466,53.1581,269.8732,65.5288,294.5865,0,U,62773,999,3061,0.00066143,0.00019285,0.0,0.5,0.5,0.5
STARLINK-33574,2025-015S,2025-08-01T04:28:48.946368,15.3025817,0.0001168,53.1565,266.491,79.2388,280.8744,0,U,62774,999,3029,0.0021233,0.00063177,0.0,0.5,0.5,0.5
STARLINK-33576,2025-015T,2025-08-01T03:31:14.225088,15.3021298,0.0001335,53.1587,266.956,77.6522,282.4628,0,U,62775,999,3065,0.00091518,0.00026855,0.0,0.5,0.5,0.5
STARLINK-33570,2025-015U,2025-07-31T11:12:42.530688,15.30206922,0.000118,53.1573,269.8209,107.1756,252.9374,0,U,62776,999,3055,0.00046532,0.0001345,0.0,0.5,0.5,0.5
STARLINK-33591,2025-015V,2025-08-01T03:26:40.670592,15.30203081,0.0001415,53.1594,266.933,91.1475,268.9688,0,U,62777,999,3070,0.00054816,0.00015912,0.0,0.5,0.5,0.5
STARLINK-33573,2025-015W,2025-08-01T04:18:11.023200,15.30201005,0.0001335,53.1575,266.4436,81.7961,278.3191,0,U,62778,999,3071,0.00067324,0.00019634,0.0,0.5,0.5,0.5
STARLINK-33568,2025-015X,2025-07-31T11:37:01.750656,15.30198906,0.0001214,53.1587,269.9306,73.9933,286.1201,0,U,62779,999,3045,0.00033399,9.545e-05,0.0,0.5,0.5,0.5
STARLINK-33593,2025-015Y,2025-08-01T04:24:15.409152,15.30212198,0.0001374,53.1571,266.4693,100.3421,259.7734,0,U,62780,999,3071,0.00073581,0.00021505,0.0,0.5,0.5,0.5
STARLINK-33588,2025-015Z,2025-08-01T03:19:49.412640,15.30209682,0.0001607,53.1594,264.7101,95.796,264.3224,0,U,62781,999,3073,0.00078486,0.00022965,0.0,0.5,0.5,0.5
STARLINK-33585,2025-015AA,2025-08-01T04:04:30.354528,15.30205295,7.87e-05,53.157,266.3883,38.3967,321.7089,0,U,62782,999,3044,0.00087581,0.00025674,0.0,0.5,0.5,0.5
